[{"OBJECT_NAME":"GRACE-FO 1","OBJECT_ID":"2018-047A","EPOCH":"2026-03-09T22:18:06.984864","MEAN_MOTION":15.37445091,"ECCENTRICITY":0.00130905,"INCLINATION":88.9903,"RA_OF_ASC_NODE":211.5804,"ARG_OF_PERICENTER":129.4335,"MEAN_ANOMALY":230.8081,"EPHEMERIS_TYPE":0,"CLASSIFICATION_TYPE":"U","NORAD_CAT_ID":43476,"ELEMENT_SET_NO":999,"REV_AT_EPOCH":43454,"BSTAR":0.00017214877,"MEAN_MOTION_DOT":6.364e-5,"MEAN_MOTION_DDOT":0},{"OBJECT_NAME":"SHIYAN-32 03","OBJECT_ID":"2025-255D","EPOCH":"2026-03-09T22:33:08.924832","MEAN_MOTION":15.40310528,"ECCENTRICITY":0.00080763,"INCLINATION":52.9948,"RA_OF_ASC_NODE":125.0183,"ARG_OF_PERICENTER":220.5672,"MEAN_ANOMALY":139.473,"EPHEMERIS_TYPE":0,"CLASSIFICATION_TYPE":"U","NORAD_CAT_ID":66379,"ELEMENT_SET_NO":999,"REV_AT_EPOCH":1867,"BSTAR":0.00040194929,"MEAN_MOTION_DOT":0.00016094,"MEAN_MOTION_DDOT":0}]
